[{"OBJECT_NAME":"FLOCK 4H-32","OBJECT_ID":"2025-276BX","EPOCH":"2026-04-27T10:50:27.555648","MEAN_MOTION":15.19149172,"ECCENTRICITY":0.0005147,"INCLINATION":97.4242,"RA_OF_ASC_NODE":191.8552,"ARG_OF_PERICENTER":166.4428,"MEAN_ANOMALY":193.6946,"EPHEMERIS_TYPE":0,"CLASSIFICATION_TYPE":"U","NORAD_CAT_ID":66735,"ELEMENT_SET_NO":999,"REV_AT_EPOCH":2271,"BSTAR":0.00035413,"MEAN_MOTION_DOT":7.379e-5,"MEAN_MOTION_DDOT":0},{"OBJECT_NAME":"FLOCK 4H-33","OBJECT_ID":"2025-276BY","EPOCH":"2026-04-27T11:16:53.960736","MEAN_MOTION":15.20353503,"ECCENTRICITY":0.0003843,"INCLINATION":97.4238,"RA_OF_ASC_NODE":192.131,"ARG_OF_PERICENTER":108.2682,"MEAN_ANOMALY":251.8972,"EPHEMERIS_TYPE":0,"CLASSIFICATION_TYPE":"U","NORAD_CAT_ID":66736,"ELEMENT_SET_NO":999,"REV_AT_EPOCH":2273,"BSTAR":0.00035437,"MEAN_MOTION_DOT":7.647e-5,"MEAN_MOTION_DDOT":0},{"OBJECT_NAME":"FLOCK 4H-34","OBJECT_ID":"2025-276BZ","EPOCH":"2026-04-27T10:26:51.566784","MEAN_MOTION":15.19874158,"ECCENTRICITY":0.0003997,"INCLINATION":97.4253,"RA_OF_ASC_NODE":192.0535,"ARG_OF_PERICENTER":114.2849,"MEAN_ANOMALY":245.8803,"EPHEMERIS_TYPE":0,"CLASSIFICATION_TYPE":"U","NORAD_CAT_ID":66737,"ELEMENT_SET_NO":999,"REV_AT_EPOCH":2197,"BSTAR":0.00037992,"MEAN_MOTION_DOT":8.09e-5,"MEAN_MOTION_DDOT":0},{"OBJECT_NAME":"FLOCK 4H-35","OBJECT_ID":"2025-276CA","EPOCH":"2026-04-27T02:10:30.417312","MEAN_MOTION":15.2010118,"ECCENTRICITY":0.00035423,"INCLINATION":97.4213,"RA_OF_ASC_NODE":191.6741,"ARG_OF_PERICENTER":105.506,"MEAN_ANOMALY":254.6567,"EPHEMERIS_TYPE":0,"CLASSIFICATION_TYPE":"U","NORAD_CAT_ID":66738,"ELEMENT_SET_NO":999,"REV_AT_EPOCH":2196,"BSTAR":0.00032342628,"MEAN_MOTION_DOT":6.921e-5,"MEAN_MOTION_DDOT":0},{"OBJECT_NAME":"FLOCK 4H-36","OBJECT_ID":"2025-276CB","EPOCH":"2026-04-27T04:22:40.903968","MEAN_MOTION":15.19832127,"ECCENTRICITY":0.00040406,"INCLINATION":97.4262,"RA_OF_ASC_NODE":191.7982,"ARG_OF_PERICENTER":123.3033,"MEAN_ANOMALY":236.8589,"EPHEMERIS_TYPE":0,"CLASSIFICATION_TYPE":"U","NORAD_CAT_ID":66739,"ELEMENT_SET_NO":999,"REV_AT_EPOCH":2268,"BSTAR":0.00034805329,"MEAN_MOTION_DOT":7.396e-5,"MEAN_MOTION_DDOT":0}]
