FLOCK 4H-32             
1 66735U 25276BX  26117.45170782  .00007379  00000+0  35413-3 0  9994
2 66735  97.4242 191.8552 0005147 166.4428 193.6946 15.19149172 22716
FLOCK 4H-33             
1 66736U 25276BY  26117.47006899  .00007647  00000+0  35437-3 0  9998
2 66736  97.4238 192.1310 0003843 108.2682 251.8972 15.20353503 22730
FLOCK 4H-34             
1 66737U 25276BZ  26117.43531906  .00008090  00000+0  37992-3 0  9998
2 66737  97.4253 192.0535 0003997 114.2849 245.8803 15.19874158 21971
FLOCK 4H-35             
1 66738U 25276CA  26117.09062983  .00006921  00000+0  32343-3 0  9991
2 66738  97.4213 191.6741 0003542 105.5060 254.6567 15.20101180 21960
FLOCK 4H-36             
1 66739U 25276CB  26117.18241787  .00007396  00000+0  34805-3 0  9995
2 66739  97.4262 191.7982 0004040 123.3033 236.8589 15.19832127 22681
